[{"OBJECT_NAME":"IRIDIUM 120","OBJECT_ID":"2017-039C","EPOCH":"2026-03-09T21:12:27.197568","MEAN_MOTION":14.34217759,"ECCENTRICITY":0.00021079,"INCLINATION":86.4016,"RA_OF_ASC_NODE":3.4651,"ARG_OF_PERICENTER":89.0553,"MEAN_ANOMALY":271.0885,"EPHEMERIS_TYPE":0,"CLASSIFICATION_TYPE":"U","NORAD_CAT_ID":42805,"ELEMENT_SET_NO":999,"REV_AT_EPOCH":45694,"BSTAR":1.4790436e-5,"MEAN_MOTION_DOT":6.1e-7,"MEAN_MOTION_DDOT":0},{"OBJECT_NAME":"1971-067 DEB","OBJECT_ID":"1971-067N","EPOCH":"2026-03-09T22:31:16.701600","MEAN_MOTION":14.25246598,"ECCENTRICITY":0.00803336,"INCLINATION":87.6208,"RA_OF_ASC_NODE":60.6901,"ARG_OF_PERICENTER":40.1051,"MEAN_ANOMALY":320.6033,"EPHEMERIS_TYPE":0,"CLASSIFICATION_TYPE":"U","NORAD_CAT_ID":5384,"ELEMENT_SET_NO":999,"REV_AT_EPOCH":82909,"BSTAR":0.00017060021,"MEAN_MOTION_DOT":4.33e-6,"MEAN_MOTION_DDOT":0}]
